OBJECT_NAME,OBJECT_ID,EPOCH,MEAN_MOTION,ECCENTRICITY,INCLINATION,RA_OF_ASC_NODE,ARG_OF_PERICENTER,MEAN_ANOMALY,EPHEMERIS_TYPE,CLASSIFICATION_TYPE,NORAD_CAT_ID,ELEMENT_SET_NO,REV_AT_EPOCH,BSTAR,MEAN_MOTION_DOT,MEAN_MOTION_DDOT
STARLINK-2195,2021-017BC,2025-02-17T11:29:18.138624,15.06369221,.0000695,53.0533,150.8947,129.9467,230.1583,0,U,47772,999,21889,.13502E-2,.1987E-3,0
STARLINK-2196,2021-017BD,2025-02-17T11:24:00.075168,15.06422176,.0001801,53.0523,150.9171,82.5176,277.6017,0,U,47773,999,21889,.12929E-3,.1646E-4,0
STARLINK-2209,2021-017BG,2025-02-16T23:28:46.496352,15.06397511,.0001246,53.0528,143.1439,93.1173,266.9958,0,U,47776,999,21896,-.10075E-3,-.1782E-4,0
STARLINK-2210,2021-017BH,2025-02-17T12:18:22.750848,15.06442402,.00012,53.0530,140.7425,81.0076,279.1049,0,U,47777,999,21904,.194E-2,.28766E-3,0
STARLINK-2211,2021-017BJ,2025-02-17T11:30:38.049984,15.06382682,.0001649,53.0545,140.8947,79.2133,280.9041,0,U,47778,999,21904,.55995E-3,.8065E-4,0
STARLINK-2213,2021-017BL,2025-02-16T23:23:28.586688,15.06412148,.0001513,53.0535,143.1613,86.9614,273.1548,0,U,47780,999,21897,.18568E-2,.27493E-3,0
STARLINK-2257,2021-018A,2025-02-17T02:13:18.293376,15.06403744,.0001279,53.0546,182.6319,86.1214,273.9921,0,U,47787,999,21813,.63019E-4,.657E-5,0
STARLINK-2314,2021-018B,2025-02-17T12:03:07.287552,15.06429743,.0001483,53.0536,155.7910,88.5894,271.5264,0,U,47788,999,21855,.18305E-2,.27111E-3,0
STARLINK-2315,2021-018C,2025-02-17T13:14:08.683296,15.06393424,.0001673,53.0566,160.5765,103.2021,256.9155,0,U,47789,999,21849,.25475E-3,.3514E-4,0
STARLINK-2319,2021-018D,2025-02-17T12:38:17.787264,15.06434612,.0001403,53.0533,150.6841,89.4228,270.6922,0,U,47790,999,21863,.1291E-2,.19018E-3,0
STARLINK-2322,2021-018E,2025-02-16T16:24:09.759456,15.06389187,.0001377,53.0548,184.4681,88.5671,271.5475,0,U,47791,999,21842,.34587E-4,.234E-5,0
STARLINK-2334,2021-018F,2025-02-17T00:40:26.575968,15.06386543,.0001371,53.0527,162.9210,93.2323,266.8822,0,U,47792,999,21840,.43423E-3,.619E-4,0
STARLINK-2338,2021-018G,2025-02-16T15:28:25.958496,15.06408281,.0001333,53.0539,164.6402,88.4233,271.6908,0,U,47793,999,21868,.47803E-3,.6847E-4,0
STARLINK-2373,2021-018K,2025-02-17T01:12:15.995232,15.06418858,.0000998,53.0531,162.8221,109.5418,250.5678,0,U,47796,999,21840,.35892E-3,.5071E-4,0
STARLINK-2377,2021-018L,2025-02-17T08:26:50.405856,15.06413959,.0001109,53.0511,186.4609,51.5627,308.5461,0,U,47797,999,21810,.26346E-3,.3646E-4,0
STARLINK-2379,2021-018M,2025-02-17T12:36:56.918592,15.06419854,.0001514,53.0547,160.6868,90.8320,269.2842,0,U,47798,999,21847,.3713E-3,.5256E-4,0
STARLINK-2380,2021-018N,2025-02-17T12:31:38.894016,15.06431803,.0001479,53.0529,160.7066,69.9716,290.1432,0,U,47799,999,21847,.3469E-3,.4894E-4,0
STARLINK-2381,2021-018P,2025-02-17T11:27:59.817024,15.06377643,.0001359,53.0533,160.8998,85.8222,274.2922,0,U,47800,999,21848,-.1031E-3,-.1816E-4,0
STARLINK-2383,2021-018R,2025-02-17T08:37:27.242112,15.06405643,.0001396,53.0543,186.4322,86.7450,273.3698,0,U,47802,999,21810,.16829E-3,.2226E-4,0
STARLINK-2384,2021-018S,2025-02-17T13:19:25.660704,15.06405417,.0001451,53.0543,160.5552,89.0018,271.1138,0,U,47803,999,21848,.71885E-4,.79E-5,0
STARLINK-2385,2021-018T,2025-02-17T12:05:06.988704,15.06421945,.0001441,53.0532,160.7884,73.3923,286.7224,0,U,47804,999,21847,.17789E-2,.2633E-3,0
STARLINK-2386,2021-018U,2025-02-17T11:17:21.997536,15.06418966,.0001506,53.0560,161.1767,95.9957,264.1203,0,U,47805,999,21846,.62954E-4,.657E-5,0
STARLINK-2387,2021-018V,2025-02-17T01:50:05.076960,15.06396232,.000094,53.0534,177.7127,90.0380,270.0717,0,U,47806,999,21820,.58666E-3,.8467E-4,0
STARLINK-2388,2021-018W,2025-02-17T12:43:35.837760,15.06431203,.0001342,53.0533,150.6670,94.9597,265.1545,0,U,47807,999,21861,.18414E-2,.27276E-3,0
STARLINK-2389,2021-018X,2025-02-17T11:49:51.442464,15.06407534,.0001269,53.0519,175.8352,87.5496,272.5638,0,U,47808,999,21826,.28505E-3,.3968E-4,0
STARLINK-2391,2021-018Z,2025-02-17T02:59:44.895552,15.06406842,.0001365,53.0535,192.4838,88.1958,271.9188,0,U,47810,999,21799,.24699E-3,.34E-4,0
STARLINK-2393,2021-018AB,2025-02-17T12:48:54.527616,15.06407057,.0001222,53.0560,190.6481,103.3909,256.7217,0,U,47812,999,21805,.1277E-3,.1622E-4,0
STARLINK-2395,2021-018AD,2025-02-17T09:49:45.955488,15.06407791,.0000896,53.0542,181.2082,89.7685,270.3407,0,U,47814,999,21819,.18689E-3,.2504E-4,0
STARLINK-2396,2021-018AE,2025-02-17T12:11:03.811200,15.06418256,.0001169,53.0558,175.7637,88.1199,271.9924,0,U,47815,999,21827,.92791E-4,.1102E-4,0
STARLINK-2399,2021-018AF,2025-02-17T12:23:40.441056,15.06418090,.000142,53.0543,180.7265,97.7891,262.3260,0,U,47816,999,21820,.21835E-3,.2974E-4,0
