STARLINK-2195           
1 47772U 21017BC  25048.47868216  .00019870  00000+0  13502-2 0  9996
2 47772  53.0533 150.8947 0000695 129.9467 230.1583 15.06369221218895
STARLINK-2196           
1 47773U 21017BD  25048.47500087  .00001646  00000+0  12929-3 0  9991
2 47773  53.0523 150.9171 0001801  82.5176 277.6017 15.06422176218893
STARLINK-2209           
1 47776U 21017BG  25047.97831593 -.00001782  00000+0 -10075-3 0  9990
2 47776  53.0528 143.1439 0001246  93.1173 266.9958 15.06397511218967
STARLINK-2210           
1 47777U 21017BH  25048.51276332  .00028766  00000+0  19400-2 0  9995
2 47777  53.0530 140.7425 0001200  81.0076 279.1049 15.06442402219044
STARLINK-2211           
1 47778U 21017BJ  25048.47960706  .00008065  00000+0  55995-3 0  9996
2 47778  53.0545 140.8947 0001649  79.2133 280.9041 15.06382682219046
STARLINK-2213           
1 47780U 21017BL  25047.97463642  .00027493  00000+0  18568-2 0  9990
2 47780  53.0535 143.1613 0001513  86.9614 273.1548 15.06412148218971
STARLINK-2257           
1 47787U 21018A   25048.09257284  .00000657  00000+0  63019-4 0  9991
2 47787  53.0546 182.6319 0001279  86.1214 273.9921 15.06403744218131
STARLINK-2314           
1 47788U 21018B   25048.50216768  .00027111  00000+0  18305-2 0  9990
2 47788  53.0536 155.7910 0001483  88.5894 271.5264 15.06429743218553
STARLINK-2315           
1 47789U 21018C   25048.55148939  .00003514  00000+0  25475-3 0  9998
2 47789  53.0566 160.5765 0001673 103.2021 256.9155 15.06393424218492
STARLINK-2319           
1 47790U 21018D   25048.52659476  .00019018  00000+0  12910-2 0  9995
2 47790  53.0533 150.6841 0001403  89.4228 270.6922 15.06434612218634
STARLINK-2322           
1 47791U 21018E   25047.68344629  .00000234  00000+0  34587-4 0  9999
2 47791  53.0548 184.4681 0001377  88.5671 271.5475 15.06389187218426
STARLINK-2334           
1 47792U 21018F   25048.02808537  .00006190  00000+0  43423-3 0  9997
2 47792  53.0527 162.9210 0001371  93.2323 266.8822 15.06386543218408
STARLINK-2338           
1 47793U 21018G   25047.64474489  .00006847  00000+0  47803-3 0  9995
2 47793  53.0539 164.6402 0001333  88.4233 271.6908 15.06408281218681
STARLINK-2373           
1 47796U 21018K   25048.05018513  .00005071  00000+0  35892-3 0  9999
2 47796  53.0531 162.8221 0000998 109.5418 250.5678 15.06418858218402
STARLINK-2377           
1 47797U 21018L   25048.35197229  .00003646  00000+0  26346-3 0  9995
2 47797  53.0511 186.4609 0001109  51.5627 308.5461 15.06413959218104
STARLINK-2379           
1 47798U 21018M   25048.52565878  .00005256  00000+0  37130-3 0  9996
2 47798  53.0547 160.6868 0001514  90.8320 269.2842 15.06419854218477
STARLINK-2380           
1 47799U 21018N   25048.52197794  .00004894  00000+0  34690-3 0  9990
2 47799  53.0529 160.7066 0001479  69.9716 290.1432 15.06431803218471
STARLINK-2381           
1 47800U 21018P   25048.47777566 -.00001816  00000+0 -10310-3 0  9994
2 47800  53.0533 160.8998 0001359  85.8222 274.2922 15.06377643218489
STARLINK-2383           
1 47802U 21018R   25048.35934308  .00002226  00000+0  16829-3 0  9997
2 47802  53.0543 186.4322 0001396  86.7450 273.3698 15.06405643218102
STARLINK-2384           
1 47803U 21018S   25048.55515811  .00000790  00000+0  71885-4 0  9992
2 47803  53.0543 160.5552 0001451  89.0018 271.1138 15.06405417218484
STARLINK-2385           
1 47804U 21018T   25048.50355311  .00026330  00000+0  17789-2 0  9994
2 47804  53.0532 160.7884 0001441  73.3923 286.7224 15.06421945218474
STARLINK-2386           
1 47805U 21018U   25048.47039349  .00000657  00000+0  62954-4 0  9991
2 47805  53.0560 161.1767 0001506  95.9957 264.1203 15.06418966218465
STARLINK-2387           
1 47806U 21018V   25048.07644765  .00008467  00000+0  58666-3 0  9993
2 47806  53.0534 177.7127 0000940  90.0380 270.0717 15.06396232218206
STARLINK-2388           
1 47807U 21018W   25048.53027590  .00027276  00000+0  18414-2 0  9991
2 47807  53.0533 150.6670 0001342  94.9597 265.1545 15.06431203218616
STARLINK-2389           
1 47808U 21018X   25048.49295651  .00003968  00000+0  28505-3 0  9997
2 47808  53.0519 175.8352 0001269  87.5496 272.5638 15.06407534218267
STARLINK-2391           
1 47810U 21018Z   25048.12482518  .00003400  00000+0  24699-3 0  9991
2 47810  53.0535 192.4838 0001365  88.1958 271.9188 15.06406842217992
STARLINK-2393           
1 47812U 21018AB  25048.53396444  .00001622  00000+0  12770-3 0  9991
2 47812  53.0560 190.6481 0001222 103.3909 256.7217 15.06407057218055
STARLINK-2395           
1 47814U 21018AD  25048.40955967  .00002504  00000+0  18689-3 0  9995
2 47814  53.0542 181.2082 0000896  89.7685 270.3407 15.06407791218197
STARLINK-2396           
1 47815U 21018AE  25048.50768300  .00001102  00000+0  92791-4 0  9990
2 47815  53.0558 175.7637 0001169  88.1199 271.9924 15.06418256218274
STARLINK-2399           
1 47816U 21018AF  25048.51644029  .00002974  00000+0  21835-3 0  9991
2 47816  53.0543 180.7265 0001420  97.7891 262.3260 15.06418090218203
